{
  "norad_id": 51113,
  "name": "STARLINK-3372",
  "history": [
    {
      "epoch": "2026-03-28T16:46:26.185152Z",
      "apogee_km": 540.7828531631358,
      "perigee_km": 538.7294841128214,
      "latitude_deg": 1.4618078771817666e-05,
      "longitude_deg": 126.06208896976956,
      "height_km": 540.5833473313105,
      "semi_major_axis_km": 6917.893168637978,
      "eccentricity": 0.00014841,
      "inclination_deg": 53.219,
      "raan_deg": 203.7868,
      "arg_perigee_deg": 86.1729,
      "mean_anomaly_deg": 273.9433,
      "mean_motion_rev_day": 15.08835819
    },
    {
      "epoch": "2026-03-29T03:54:07.678368Z",
      "apogee_km": 540.7071187573501,
      "perigee_km": 538.7770304955293,
      "latitude_deg": 6.478100681584691e-05,
      "longitude_deg": -43.398780792444185,
      "height_km": 540.4960564681011,
      "semi_major_axis_km": 6917.879074626439,
      "eccentricity": 0.0001395,
      "inclination_deg": 53.2153,
      "raan_deg": 201.7058,
      "arg_perigee_deg": 81.5706,
      "mean_anomaly_deg": 278.5445,
      "mean_motion_rev_day": 15.0884043
    },
    {
      "epoch": "2026-03-30T03:44:54.757248Z",
      "apogee_km": 540.6840459548685,
      "perigee_km": 538.7843985172431,
      "latitude_deg": -3.0235276427272986e-05,
      "longitude_deg": -46.53635013061007,
      "height_km": 540.6034233997028,
      "semi_major_axis_km": 6917.8712222360555,
      "eccentricity": 0.0001373,
      "inclination_deg": 53.2155,
      "raan_deg": 197.2438,
      "arg_perigee_deg": 88.4138,
      "mean_anomaly_deg": 271.7011,
      "mean_motion_rev_day": 15.08842999
    },
    {
      "epoch": "2026-03-30T06:55:41.415456Z",
      "apogee_km": 540.591892063333,
      "perigee_km": 538.9107068487983,
      "latitude_deg": -2.7881422465136143e-05,
      "longitude_deg": -94.95444007860534,
      "height_km": 540.6354171486652,
      "semi_major_axis_km": 6917.888299456065,
      "eccentricity": 0.00012151,
      "inclination_deg": 53.2168,
      "raan_deg": 196.6507,
      "arg_perigee_deg": 89.2006,
      "mean_anomaly_deg": 270.9125,
      "mean_motion_rev_day": 15.08837412
    },
    {
      "epoch": "2026-03-30T13:17:14.057088Z",
      "apogee_km": 540.667162344329,
      "perigee_km": 538.8560564883828,
      "latitude_deg": -1.976616297894871e-06,
      "longitude_deg": 168.20851508201378,
      "height_km": 540.6266040438128,
      "semi_major_axis_km": 6917.898609416356,
      "eccentricity": 0.0001309,
      "inclination_deg": 53.2166,
      "raan_deg": 195.4608,
      "arg_perigee_deg": 88.0574,
      "mean_anomaly_deg": 272.0568,
      "mean_motion_rev_day": 15.08834039
    },
    {
      "epoch": "2026-03-30T19:38:46.157856Z",
      "apogee_km": 540.5924248814026,
      "perigee_km": 538.8848164631963,
      "latitude_deg": 4.836784696507433e-05,
      "longitude_deg": 71.37384818538374,
      "height_km": 540.674463352582,
      "semi_major_axis_km": 6917.875620672299,
      "eccentricity": 0.00012342,
      "inclination_deg": 53.2162,
      "raan_deg": 194.271,
      "arg_perigee_deg": 92.6917,
      "mean_anomaly_deg": 267.4217,
      "mean_motion_rev_day": 15.0884156
    },
    {
      "epoch": "2026-03-31T17:54:10.218240Z",
      "apogee_km": 540.6384219662323,
      "perigee_km": 538.8342406014344,
      "latitude_deg": 3.8691779756142555e-05,
      "longitude_deg": 92.4462411381589,
      "height_km": 540.6174361474114,
      "semi_major_axis_km": 6917.873331283833,
      "eccentricity": 0.0001304,
      "inclination_deg": 53.2161,
      "raan_deg": 190.1077,
      "arg_perigee_deg": 89.0767,
      "mean_anomaly_deg": 271.0375,
      "mean_motion_rev_day": 15.08842309
    },
    {
      "epoch": "2026-04-01T17:44:57.151104Z",
      "apogee_km": 540.6101347839567,
      "perigee_km": 538.858529762626,
      "latitude_deg": -1.482890643709628e-05,
      "longitude_deg": 89.31111338445851,
      "height_km": 540.6241669344707,
      "semi_major_axis_km": 6917.871332273291,
      "eccentricity": 0.0001266,
      "inclination_deg": 53.2161,
      "raan_deg": 185.6475,
      "arg_perigee_deg": 89.6162,
      "mean_anomaly_deg": 270.4975,
      "mean_motion_rev_day": 15.08842963
    },
    {
      "epoch": "2026-04-02T17:35:44.295648Z",
      "apogee_km": 540.6004524982054,
      "perigee_km": 538.8640673139689,
      "latitude_deg": 1.4204789374356667e-05,
      "longitude_deg": 86.17476216432102,
      "height_km": 540.6623046153528,
      "semi_major_axis_km": 6917.869259906087,
      "eccentricity": 0.0001255,
      "inclination_deg": 53.216,
      "raan_deg": 181.1869,
      "arg_perigee_deg": 92.267,
      "mean_anomaly_deg": 267.8466,
      "mean_motion_rev_day": 15.08843641
    },
    {
      "epoch": "2026-04-02T22:21:53.282016Z",
      "apogee_km": 540.5761333962255,
      "perigee_km": 538.8209401638342,
      "latitude_deg": -3.0200940515870675e-05,
      "longitude_deg": 13.54962352453533,
      "height_km": 540.5615248392935,
      "semi_major_axis_km": 6917.8355367800295,
      "eccentricity": 0.00012686,
      "inclination_deg": 53.2155,
      "raan_deg": 180.2951,
      "arg_perigee_deg": 87.8676,
      "mean_anomaly_deg": 272.2461,
      "mean_motion_rev_day": 15.08854674
    }
  ]
}